0 ASTRA 3B
1 36581U 10021A   13289.22470356  .00000113  00000-0  00000+0 0  7193
2 36581 000.0545 033.5316 0004284 151.5430 304.2267 01.00270887 12580
0 ASTRA 3B
1 36581U 10021A   13290.86785470  .00000116  00000-0  00000+0 0  7206
2 36581 000.0577 034.9503 0004244 152.1149 175.3877 01.00271939 12604
0 ASTRA 3B
1 36581U 10021A   13292.00000000  .00000118  00000-0  00000+0 0  7216
2 36581 000.0280 016.3880 0003625 171.3800 223.3520 01.00265392 12612
0 ASTRA 3B
1 36581U 10021A   13295.82126573  .00000125  00000-0  00000+0 0  7222
2 36581 000.0756 034.2086 0004188 155.8195 160.5627 01.00274589 12647
